NORAD_CAT_ID,OBJECT_NAME,OBJECT_TYPE,EPOCH,MEAN_MOTION,ECCENTRICITY,INCLINATION,RA_OF_ASC_NODE,ARG_OF_PERICENTER,MEAN_ANOMALY,BSTAR,MEAN_MOTION_DOT,MEAN_MOTION_DDOT,TLE_LINE0,TLE_LINE1,TLE_LINE2,SEMIMAJOR_AXIS,PERIOD,APOGEE,PERIGEE,DECAYED
50182.0,STARLINK-3277,PAYLOAD,2024-04-15 07:30:15,15.08842317,0.0001493,53.2157,121.6524,80.3408,279.7753,7.6561e-05,9.31e-06,0.0,0 STARLINK-3277,1 50182U 21125AC  24106.31267673  .00000931  00000-0  76561-4 0  9997,2 50182  53.2157 121.6524 0001493  80.3408 279.7753 15.08842317131444,6917.873,95.437,540.771,538.705,0.0
50182.0,STARLINK-3277,PAYLOAD,2024-04-16 07:21:02,15.08843376,0.0001369,53.216,117.1919,92.5116,267.6033,8.8072e-05,1.114e-05,0.0,0 STARLINK-3277,1 50182U 21125AC  24107.30627531  .00001114  00000-0  88072-4 0  9994,2 50182  53.2160 117.1919 0001369  92.5116 267.6033 15.08843376132117,6917.87,95.437,540.682,538.788,0.0
50182.0,STARLINK-3277,PAYLOAD,2024-04-17 05:36:26,15.08841825,0.0001336,53.2149,113.0283,90.2435,269.871,0.00012594,1.717e-05,0.0,0 STARLINK-3277,1 50182U 21125AC  24108.23363662  .00001717  00000-0  12594-3 0  9993,2 50182  53.2149 113.0283 0001336  90.2435 269.8710 15.08841825131736,6917.875,95.437,540.664,538.816,0.0
50182.0,STARLINK-3277,PAYLOAD,2024-04-17 10:22:35,15.08841847,0.0001376,53.215,112.1368,90.3508,269.7641,0.0001143,1.532e-05,0.0,0 STARLINK-3277,1 50182U 21125AC  24108.43235643  .00001532  00000-0  11430-3 0  9995,2 50182  53.2150 112.1368 0001376  90.3508 269.7641 15.08841847132285,6917.875,95.437,540.692,538.788,0.0
50182.0,STARLINK-3277,PAYLOAD,2024-04-18 03:51:50,15.0883271,0.0001323,53.2153,108.865,91.552,268.5623,9.9388e-06,-1.3e-06,0.0,0 STARLINK-3277,1 50182U 21125AC  24109.16100509 -.00000130  00000-0  99388-5 0  9992,2 50182  53.2153 108.8650 0001323  91.5520 268.5623 15.08832710131873,6917.903,95.438,540.683,538.852,0.0
50182.0,STARLINK-3277,PAYLOAD,2024-04-18 07:02:37,15.08829449,0.0001288,53.2156,108.2704,90.5087,269.6053,-2.5994e-05,-7.01e-06,0.0,0 STARLINK-3277,1 50182U 21125AC  24109.29348830 -.00000701  00000-0 -25994-4 0  9993,2 50182  53.2156 108.2704 0001288  90.5087 269.6053 15.08829449132412,6917.913,95.438,540.669,538.887,0.0
50182.0,STARLINK-3277,PAYLOAD,2024-04-19 05:18:00,15.08839266,0.0001358,53.2159,104.1077,110.4334,249.6804,7.4054e-05,8.91e-06,0.0,0 STARLINK-3277,1 50182U 21125AC  24110.22084167  .00000891  00000-0  74054-4 0  9997,2 50182  53.2159 104.1077 0001358 110.4334 249.6804 15.08839266132036,6917.883,95.438,540.687,538.808,0.0
50182.0,STARLINK-3277,PAYLOAD,2024-04-19 08:28:46,15.08842959,0.0001308,53.2159,103.513,101.8727,258.2412,0.00010431,1.373e-05,0.0,0 STARLINK-3277,1 50182U 21125AC  24110.35331903  .00001373  00000-0  10431-3 0  9998,2 50182  53.2159 103.5130 0001308 101.8727 258.2412 15.08842959132577,6917.871,95.437,540.641,538.831,0.0
50182.0,STARLINK-3277,PAYLOAD,2024-04-20 06:44:10,15.08841476,0.0001277,53.2164,99.3536,93.7776,266.3362,0.00020697,3.008e-05,0.0,0 STARLINK-3277,1 50182U 21125AC  24111.28068016  .00003008  00000-0  20697-3 0  9995,2 50182  53.2164  99.3536 0001277  93.7776 266.3362 15.08841476132198,6917.876,95.437,540.624,538.857,0.0
50182.0,STARLINK-3277,PAYLOAD,2024-04-21 03:24:12,15.08827594,0.0001363,53.2163,95.4823,86.3093,273.8055,-0.00014325,-2.566e-05,0.0,0 STARLINK-3277,1 50182U 21125AC  24112.14181233 -.00002566  00000-0 -14325-3 0  9999,2 50182  53.2163  95.4823 0001363  86.3093 273.8055 15.08827594132321,6917.918,95.438,540.726,538.84,0.0
50182.0,STARLINK-3277,PAYLOAD,2024-04-21 08:10:22,15.08826676,0.0001342,53.2176,94.5923,97.3743,262.7402,-9.6174e-05,-1.818e-05,0.0,0 STARLINK-3277,1 50182U 21125AC  24112.34054244 -.00001818  00000-0 -96174-4 0  9994,2 50182  53.2176  94.5923 0001342  97.3743 262.7402 15.08826676132870,6917.921,95.438,540.715,538.858,0.0
50182.0,STARLINK-3277,PAYLOAD,2024-04-21 22:28:50,15.08838104,0.0001312,53.2179,91.9191,111.7182,248.395,3.7041e-06,-2.29e-06,0.0,0 STARLINK-3277,1 50182U 21125AC  24112.93669546 -.00000229  00000-0  37041-5 0  9999,2 50182  53.2179  91.9191 0001312 111.7182 248.3950 15.08838104132963,6917.886,95.438,540.659,538.844,0.0
50182.0,STARLINK-3277,PAYLOAD,2024-04-22 04:50:22,15.08843295,0.0001588,53.2169,90.7353,72.2396,287.8769,6.2509e-05,7.07e-06,0.0,0 STARLINK-3277,1 50182U 21125AC  24113.20165215  .00000707  00000-0  62509-4 0  9990,2 50182  53.2169  90.7353 0001588  72.2396 287.8769 15.08843295132482,6917.87,95.437,540.834,538.637,0.0
50182.0,STARLINK-3277,PAYLOAD,2024-04-22 08:01:08,15.08844,0.0001587,53.2171,90.1398,70.883,289.2334,8.3683e-05,1.044e-05,0.0,0 STARLINK-3277,1 50182U 21125AC  24113.33413188  .00001044  00000-0  83683-4 0  9990,2 50182  53.2171  90.1398 0001587  70.8830 289.2334 15.08844000133024,6917.868,95.437,540.831,538.635,0.0
50182.0,STARLINK-3277,PAYLOAD,2024-04-23 07:51:56,15.08833085,0.0001573,53.2175,85.6713,121.5266,238.588,0.00018639,2.679e-05,0.0,0 STARLINK-3277,1 50182U 21125AC  24114.32773235  .00002679  00000-0  18639-3 0  9995,2 50182  53.2175  85.6713 0001573 121.5266 238.5880 15.08833085132652,6917.902,95.438,540.855,538.678,0.0
50182.0,STARLINK-3277,PAYLOAD,2024-04-24 02:56:33,15.08848951,0.000166,53.2175,82.1023,128.6227,231.4914,-2.3139e-05,-6.56e-06,0.0,0 STARLINK-3277,1 50182U 21125AC  24115.12260700 -.00000656  00000-0 -23139-4 0  9999,2 50182  53.2175  82.1023 0001660 128.6227 231.4914 15.08848951132771,6917.853,95.437,540.866,538.57,0.0
50182.0,STARLINK-3277,PAYLOAD,2024-04-24 07:42:42,15.08850789,0.0001613,53.2175,81.2097,127.5822,232.5316,-1.1624e-05,-4.73e-06,0.0,0 STARLINK-3277,1 50182U 21125AC  24115.32132405 -.00000473  00000-0 -11624-4 0  9994,2 50182  53.2175  81.2097 0001613 127.5822 232.5316 15.08850789133321,6917.847,95.437,540.828,538.597,0.0
50182.0,STARLINK-3277,PAYLOAD,2024-04-25 02:47:20,15.0883528,0.0001219,53.218,77.6402,106.8911,253.2215,3.0639e-05,2e-06,0.0,0 STARLINK-3277,1 50182U 21125AC  24116.11621165  .00000200  00000-0  30639-4 0  9991,2 50182  53.2180  77.6402 0001219 106.8911 253.2215 15.08835280132929,6917.895,95.438,540.603,538.917,0.0
50182.0,STARLINK-3277,PAYLOAD,2024-04-25 07:33:30,15.08832671,0.0001207,53.218,76.7491,105.5947,254.5179,3.8041e-06,-2.27e-06,0.0,0 STARLINK-3277,1 50182U 21125AC  24116.31493480 -.00000227  00000-0  38041-5 0  9996,2 50182  53.2180  76.7491 0001207 105.5947 254.5179 15.08832671133474,6917.903,95.438,540.603,538.933,0.0
50182.0,STARLINK-3277,PAYLOAD,2024-04-26 04:13:30,15.08838107,0.0001182,53.2178,72.8833,110.0813,250.0306,3.4488e-06,-2.33e-06,0.0,0 STARLINK-3277,1 50182U 21125AC  24117.17605321 -.00000233  00000-0  34488-5 0  9998,2 50182  53.2178  72.8833 0001182 110.0813 250.0306 15.08838107133083,6917.886,95.438,540.569,538.933,0.0
50182.0,STARLINK-3277,PAYLOAD,2024-04-26 05:48:54,15.08797045,0.0001341,53.2181,72.5859,104.8917,255.2224,0.00059593,9.198e-05,0.0,0 STARLINK-3277,1 50182U 21125AC  24117.24230029  .00009198  00000-0  59593-3 0  9995,2 50182  53.2181  72.5859 0001341 104.8917 255.2224 15.08797045133097,6918.012,95.44,540.804,538.949,0.0
50182.0,STARLINK-3277,PAYLOAD,2024-04-26 13:45:48,15.08853375,0.0001194,53.2177,71.0996,87.614,272.4989,0.00013075,1.794e-05,0.0,0 STARLINK-3277,1 50182U 21125AC  24117.57347906  .00001794  00000-0  13075-3 0  9993,2 50182  53.2177  71.0996 0001194  87.6140 272.4989 15.08853375133661,6917.84,95.437,540.53,538.879,0.0
50182.0,STARLINK-3277,PAYLOAD,2024-04-27 04:04:18,15.08836297,0.0001239,53.2181,68.4247,83.74,276.3733,8.2191e-05,1.02e-05,0.0,0 STARLINK-3277,1 50182U 21125AC  24118.16965558  .00001020  00000-0  82191-4 0  9996,2 50182  53.2181  68.4247 0001239  83.7400 276.3733 15.08836297133238,6917.892,95.438,540.614,538.9,0.0
50182.0,STARLINK-3277,PAYLOAD,2024-04-27 13:36:35,15.08850874,0.0001268,53.2178,66.6412,78.2996,281.8138,0.00019742,2.856e-05,0.0,0 STARLINK-3277,1 50182U 21125AC  24118.56708195  .00002856  00000-0  19742-3 0  9991,2 50182  53.2178  66.6412 0001268  78.2996 281.8138 15.08850874133810,6917.847,95.437,540.589,538.835,0.0
50182.0,STARLINK-3277,PAYLOAD,2024-04-28 03:55:06,15.08823808,0.0001282,53.2181,63.9678,85.2361,274.8778,-0.00011829,-2.169e-05,0.0,0 STARLINK-3277,1 50182U 21125AC  24119.16327310 -.00002169  00000-0 -11829-3 0  9991,2 50182  53.2181  63.9678 0001282  85.2361 274.8778 15.08823808133389,6917.93,95.439,540.682,538.908,0.0
50182.0,STARLINK-3277,PAYLOAD,2024-04-28 05:30:29,15.08830163,0.0001417,53.2181,63.6696,108.5862,251.5284,-0.00019668,-3.416e-05,0.0,0 STARLINK-3277,1 50182U 21125AC  24119.22951143 -.00003416  00000-0 -19668-3 0  9990,2 50182  53.2181  63.6696 0001417 108.5862 251.5284 15.08830163133916,6917.91,95.438,540.756,538.795,0.0
50182.0,STARLINK-3277,PAYLOAD,2024-04-28 19:48:57,15.08823292,0.0001421,53.2185,60.9924,77.6675,282.4476,0.00010809,1.432e-05,0.0,0 STARLINK-3277,1 50182U 21125AC  24119.82566891  .00001432  00000-0  10809-3 0  9990,2 50182  53.2185  60.9924 0001421  77.6675 282.4476 15.08823292133480,6917.931,95.439,540.779,538.813,0.0
50182.0,STARLINK-3277,PAYLOAD,2024-04-29 05:21:15,15.08849058,0.000114,53.2173,59.21,93.6603,266.4519,7.4808e-05,9.03e-06,0.0,0 STARLINK-3277,1 50182U 21125AC  24120.22309480  .00000903  00000-0  74808-4 0  9997,2 50182  53.2173  59.2100 0001140  93.6603 266.4519 15.08849058133546,6917.853,95.437,540.506,538.929,0.0
50182.0,STARLINK-3277,PAYLOAD,2024-04-30 05:12:02,15.08842405,0.0001212,53.2175,54.7489,84.8972,275.2158,0.00017013,2.421e-05,0.0,0 STARLINK-3277,1 50182U 21125AC  24121.21669616  .00002421  00000-0  17013-3 0  9998,2 50182  53.2175  54.7489 0001212  84.8972 275.2158 15.08842405133691,6917.873,95.437,540.576,538.9,0.0
50182.0,STARLINK-3277,PAYLOAD,2024-04-30 13:08:57,15.08846243,0.0001279,53.2179,53.2628,81.1077,279.006,0.00016196,2.291e-05,0.0,0 STARLINK-3277,1 50182U 21125AC  24121.54789339  .00002291  00000-0  16196-3 0  9995,2 50182  53.2179  53.2628 0001279  81.1077 279.0060 15.08846243134265,6917.861,95.437,540.611,538.842,0.0
